ARIANE 5 R/B            
1 28499U 04049H   25302.44931557  .00001329  00000+0  15338-3 0  9996
2 28499  98.2508 101.1542 0085809  56.8921 304.0492 14.84878531126315
CZ-2D R/B               
1 28738U 05024B   25302.48320575  .00031374  00000+0  55477-3 0  9993
2 28738  97.3686 308.8580 0007594 128.0318 232.1620 15.50241964119395
ALOS (DAICHI)           
1 28931U 06002A   25302.43252803  .00002503  00000+0  43271-3 0  9999
2 28931  98.1017 254.2565 0001727  54.8303 305.3064 14.69264072 54203
H-2A R/B                
1 28932U 06002B   25302.37034413  .00010985  00000+0  59677-3 0  9998
2 28932  98.2287  73.5494 0055250 328.3102  31.4805 15.13383818 74553
RESURS-DK 1             
1 29228U 06021A   25302.50490407  .00003682  00000+0  22124-3 0  9995
2 29228  69.9335 216.1198 0007027 295.7054  64.3385 15.11796910 67693
CZ-4B R/B               
1 29507U 06046C   25302.53268500  .00006970  00000+0  36906-3 0  9998
2 29507  97.5806 342.7937 0034537   4.3911 355.7618 15.15223729 40179
CZ-2C R/B               
1 31114U 07010B   25302.33332139  .00000211  00000+0  11632-3 0  9996
2 31114  98.3947  57.2261 0058192 316.9637  42.6997 14.20183335961075
COSMO-SKYMED 1          
1 31598U 07023A   25302.49541397  .00003424  00000+0  31614-3 0  9992
2 31598  97.8870 127.6166 0001171  79.9718 280.1634 14.95291812995286
COSMOS 2428             
1 31792U 07029A   25302.48967442 -.00000222  00000+0 -93638-4 0  9996
2 31792  70.9364 118.7793 0001745 118.7772 241.3524 14.12893524945568
SL-16 R/B               
1 31793U 07029B   25302.48275791 -.00000087  00000+0 -20040-4 0  9992
2 31793  70.9737  88.1844 0002485 261.8429 155.8342 14.14803769946811
KORONAS-FOTON           
1 33504U 09003A   25302.38870814  .00017687  00000+0  44526-3 0  9990
2 33504  82.4322  52.0000 0010634 268.3909  91.6118 15.39729020925512
CZ-2C R/B               
1 37731U 11030B   25302.47842889  .00002346  00000+0  30441-3 0  9997
2 37731  97.8338 257.5908 0054560  58.2371  55.6937 14.80662136770672
