CCSDS_OMM_VERS = 2.0
CREATION_DATE  = 
ORIGINATOR     = 

OBJECT_NAME    = ARIANE 5 R/B
OBJECT_ID      = 2004-049H
CENTER_NAME    = EARTH
REF_FRAME      = TEME
TIME_SYSTEM    = UTC
MEAN_ELEMENT_THEORY = SGP/SGP4

EPOCH          = 2025-10-29T10:47:00.865248
MEAN_MOTION    = 14.84878531
ECCENTRICITY   = .0085809
INCLINATION    = 98.2508
RA_OF_ASC_NODE = 101.1542
ARG_OF_PERICENTER = 56.8921
MEAN_ANOMALY   = 304.0492

EPHEMERIS_TYPE = 0
CLASSIFICATION_TYPE = U
NORAD_CAT_ID   = 28499
ELEMENT_SET_NO = 999
REV_AT_EPOCH   = 12631
BSTAR          = .15338E-3
MEAN_MOTION_DOT = .1329E-4
MEAN_MOTION_DDOT = 0

CCSDS_OMM_VERS = 2.0
CREATION_DATE  = 
ORIGINATOR     = 

OBJECT_NAME    = CZ-2D R/B
OBJECT_ID      = 2005-024B
CENTER_NAME    = EARTH
REF_FRAME      = TEME
TIME_SYSTEM    = UTC
MEAN_ELEMENT_THEORY = SGP/SGP4

EPOCH          = 2025-10-29T11:35:48.976800
MEAN_MOTION    = 15.50241964
ECCENTRICITY   = .0007594
INCLINATION    = 97.3686
RA_OF_ASC_NODE = 308.8580
ARG_OF_PERICENTER = 128.0318
MEAN_ANOMALY   = 232.1620

EPHEMERIS_TYPE = 0
CLASSIFICATION_TYPE = U
NORAD_CAT_ID   = 28738
ELEMENT_SET_NO = 999
REV_AT_EPOCH   = 11939
BSTAR          = .55477E-3
MEAN_MOTION_DOT = .31374E-3
MEAN_MOTION_DDOT = 0

CCSDS_OMM_VERS = 2.0
CREATION_DATE  = 
ORIGINATOR     = 

OBJECT_NAME    = ALOS (DAICHI)
OBJECT_ID      = 2006-002A
CENTER_NAME    = EARTH
REF_FRAME      = TEME
TIME_SYSTEM    = UTC
MEAN_ELEMENT_THEORY = SGP/SGP4

EPOCH          = 2025-10-29T10:22:50.421792
MEAN_MOTION    = 14.69264072
ECCENTRICITY   = .0001727
INCLINATION    = 98.1017
RA_OF_ASC_NODE = 254.2565
ARG_OF_PERICENTER = 54.8303
MEAN_ANOMALY   = 305.3064

EPHEMERIS_TYPE = 0
CLASSIFICATION_TYPE = U
NORAD_CAT_ID   = 28931
ELEMENT_SET_NO = 999
REV_AT_EPOCH   = 5420
BSTAR          = .43271E-3
MEAN_MOTION_DOT = .2503E-4
MEAN_MOTION_DDOT = 0

CCSDS_OMM_VERS = 2.0
CREATION_DATE  = 
ORIGINATOR     = 

OBJECT_NAME    = H-2A R/B
OBJECT_ID      = 2006-002B
CENTER_NAME    = EARTH
REF_FRAME      = TEME
TIME_SYSTEM    = UTC
MEAN_ELEMENT_THEORY = SGP/SGP4

EPOCH          = 2025-10-29T08:53:17.732832
MEAN_MOTION    = 15.13383818
ECCENTRICITY   = .005525
INCLINATION    = 98.2287
RA_OF_ASC_NODE = 73.5494
ARG_OF_PERICENTER = 328.3102
MEAN_ANOMALY   = 31.4805

EPHEMERIS_TYPE = 0
CLASSIFICATION_TYPE = U
NORAD_CAT_ID   = 28932
ELEMENT_SET_NO = 999
REV_AT_EPOCH   = 7455
BSTAR          = .59677E-3
MEAN_MOTION_DOT = .10985E-3
MEAN_MOTION_DDOT = 0

CCSDS_OMM_VERS = 2.0
CREATION_DATE  = 
ORIGINATOR     = 

OBJECT_NAME    = RESURS-DK 1
OBJECT_ID      = 2006-021A
CENTER_NAME    = EARTH
REF_FRAME      = TEME
TIME_SYSTEM    = UTC
MEAN_ELEMENT_THEORY = SGP/SGP4

EPOCH          = 2025-10-29T12:07:03.711648
MEAN_MOTION    = 15.11796910
ECCENTRICITY   = .0007027
INCLINATION    = 69.9335
RA_OF_ASC_NODE = 216.1198
ARG_OF_PERICENTER = 295.7054
MEAN_ANOMALY   = 64.3385

EPHEMERIS_TYPE = 0
CLASSIFICATION_TYPE = U
NORAD_CAT_ID   = 29228
ELEMENT_SET_NO = 999
REV_AT_EPOCH   = 6769
BSTAR          = .22124E-3
MEAN_MOTION_DOT = .3682E-4
MEAN_MOTION_DDOT = 0

CCSDS_OMM_VERS = 2.0
CREATION_DATE  = 
ORIGINATOR     = 

OBJECT_NAME    = CZ-4B R/B
OBJECT_ID      = 2006-046C
CENTER_NAME    = EARTH
REF_FRAME      = TEME
TIME_SYSTEM    = UTC
MEAN_ELEMENT_THEORY = SGP/SGP4

EPOCH          = 2025-10-29T12:47:03.984000
MEAN_MOTION    = 15.15223729
ECCENTRICITY   = .0034537
INCLINATION    = 97.5806
RA_OF_ASC_NODE = 342.7937
ARG_OF_PERICENTER = 4.3911
MEAN_ANOMALY   = 355.7618

EPHEMERIS_TYPE = 0
CLASSIFICATION_TYPE = U
NORAD_CAT_ID   = 29507
ELEMENT_SET_NO = 999
REV_AT_EPOCH   = 4017
BSTAR          = .36906E-3
MEAN_MOTION_DOT = .697E-4
MEAN_MOTION_DDOT = 0

CCSDS_OMM_VERS = 2.0
CREATION_DATE  = 
ORIGINATOR     = 

OBJECT_NAME    = CZ-2C R/B
OBJECT_ID      = 2007-010B
CENTER_NAME    = EARTH
REF_FRAME      = TEME
TIME_SYSTEM    = UTC
MEAN_ELEMENT_THEORY = SGP/SGP4

EPOCH          = 2025-10-29T07:59:58.968096
MEAN_MOTION    = 14.20183335
ECCENTRICITY   = .0058192
INCLINATION    = 98.3947
RA_OF_ASC_NODE = 57.2261
ARG_OF_PERICENTER = 316.9637
MEAN_ANOMALY   = 42.6997

EPHEMERIS_TYPE = 0
CLASSIFICATION_TYPE = U
NORAD_CAT_ID   = 31114
ELEMENT_SET_NO = 999
REV_AT_EPOCH   = 96107
BSTAR          = .11632E-3
MEAN_MOTION_DOT = .211E-5
MEAN_MOTION_DDOT = 0

CCSDS_OMM_VERS = 2.0
CREATION_DATE  = 
ORIGINATOR     = 

OBJECT_NAME    = COSMO-SKYMED 1
OBJECT_ID      = 2007-023A
CENTER_NAME    = EARTH
REF_FRAME      = TEME
TIME_SYSTEM    = UTC
MEAN_ELEMENT_THEORY = SGP/SGP4

EPOCH          = 2025-10-29T11:53:23.767008
MEAN_MOTION    = 14.95291812
ECCENTRICITY   = .0001171
INCLINATION    = 97.8870
RA_OF_ASC_NODE = 127.6166
ARG_OF_PERICENTER = 79.9718
MEAN_ANOMALY   = 280.1634

EPHEMERIS_TYPE = 0
CLASSIFICATION_TYPE = U
NORAD_CAT_ID   = 31598
ELEMENT_SET_NO = 999
REV_AT_EPOCH   = 99528
BSTAR          = .31614E-3
MEAN_MOTION_DOT = .3424E-4
MEAN_MOTION_DDOT = 0

CCSDS_OMM_VERS = 2.0
CREATION_DATE  = 
ORIGINATOR     = 

OBJECT_NAME    = COSMOS 2428
OBJECT_ID      = 2007-029A
CENTER_NAME    = EARTH
REF_FRAME      = TEME
TIME_SYSTEM    = UTC
MEAN_ELEMENT_THEORY = SGP/SGP4

EPOCH          = 2025-10-29T11:45:07.869888
MEAN_MOTION    = 14.12893524
ECCENTRICITY   = .0001745
INCLINATION    = 70.9364
RA_OF_ASC_NODE = 118.7793
ARG_OF_PERICENTER = 118.7772
MEAN_ANOMALY   = 241.3524

EPHEMERIS_TYPE = 0
CLASSIFICATION_TYPE = U
NORAD_CAT_ID   = 31792
ELEMENT_SET_NO = 999
REV_AT_EPOCH   = 94556
BSTAR          = -.93638E-4
MEAN_MOTION_DOT = -.222E-5
MEAN_MOTION_DDOT = 0

CCSDS_OMM_VERS = 2.0
CREATION_DATE  = 
ORIGINATOR     = 

OBJECT_NAME    = SL-16 R/B
OBJECT_ID      = 2007-029B
CENTER_NAME    = EARTH
REF_FRAME      = TEME
TIME_SYSTEM    = UTC
MEAN_ELEMENT_THEORY = SGP/SGP4

EPOCH          = 2025-10-29T11:35:10.283424
MEAN_MOTION    = 14.14803769
ECCENTRICITY   = .0002485
INCLINATION    = 70.9737
RA_OF_ASC_NODE = 88.1844
ARG_OF_PERICENTER = 261.8429
MEAN_ANOMALY   = 155.8342

EPHEMERIS_TYPE = 0
CLASSIFICATION_TYPE = U
NORAD_CAT_ID   = 31793
ELEMENT_SET_NO = 999
REV_AT_EPOCH   = 94681
BSTAR          = -.2004E-4
MEAN_MOTION_DOT = -.87E-6
MEAN_MOTION_DDOT = 0

CCSDS_OMM_VERS = 2.0
CREATION_DATE  = 
ORIGINATOR     = 

OBJECT_NAME    = KORONAS-FOTON
OBJECT_ID      = 2009-003A
CENTER_NAME    = EARTH
REF_FRAME      = TEME
TIME_SYSTEM    = UTC
MEAN_ELEMENT_THEORY = SGP/SGP4

EPOCH          = 2025-10-29T09:19:44.383296
MEAN_MOTION    = 15.39729020
ECCENTRICITY   = .0010634
INCLINATION    = 82.4322
RA_OF_ASC_NODE = 52.0000
ARG_OF_PERICENTER = 268.3909
MEAN_ANOMALY   = 91.6118

EPHEMERIS_TYPE = 0
CLASSIFICATION_TYPE = U
NORAD_CAT_ID   = 33504
ELEMENT_SET_NO = 999
REV_AT_EPOCH   = 92551
BSTAR          = .44526E-3
MEAN_MOTION_DOT = .17687E-3
MEAN_MOTION_DDOT = 0

CCSDS_OMM_VERS = 2.0
CREATION_DATE  = 
ORIGINATOR     = 

OBJECT_NAME    = CZ-2C R/B
OBJECT_ID      = 2011-030B
CENTER_NAME    = EARTH
REF_FRAME      = TEME
TIME_SYSTEM    = UTC
MEAN_ELEMENT_THEORY = SGP/SGP4

EPOCH          = 2025-10-29T11:28:56.256096
MEAN_MOTION    = 14.80662136
ECCENTRICITY   = .005456
INCLINATION    = 97.8338
RA_OF_ASC_NODE = 257.5908
ARG_OF_PERICENTER = 58.2371
MEAN_ANOMALY   = 55.6937

EPHEMERIS_TYPE = 0
CLASSIFICATION_TYPE = U
NORAD_CAT_ID   = 37731
ELEMENT_SET_NO = 999
REV_AT_EPOCH   = 77067
BSTAR          = .30441E-3
MEAN_MOTION_DOT = .2346E-4
MEAN_MOTION_DDOT = 0

